NORAD_CAT_ID,OBJECT_NAME,OBJECT_TYPE,EPOCH,MEAN_MOTION,ECCENTRICITY,INCLINATION,RA_OF_ASC_NODE,ARG_OF_PERICENTER,MEAN_ANOMALY,BSTAR,MEAN_MOTION_DOT,MEAN_MOTION_DDOT,TLE_LINE0,TLE_LINE1,TLE_LINE2,SEMIMAJOR_AXIS,PERIOD,APOGEE,PERIGEE,DECAYED
56448.0,STARLINK-5990,PAYLOAD,2024-08-02 04:50:29,14.98335379,0.0002922,70.0002,178.2292,271.1096,88.9728,6.2012e-05,6.47e-06,0.0,0 STARLINK-5990,1 56448U 23064A   24215.20172575  .00000647  00000-0  62012-4 0  9997,2 56448  70.0002 178.2292 0002922 271.1096  88.9728 14.98335379 68053,6950.176,96.107,574.072,570.01,0.0
56448.0,STARLINK-5990,PAYLOAD,2024-08-02 14:27:17,14.98354481,0.0002914,70.0006,177.2188,276.0555,84.0272,-0.00037125,-4.523e-05,0.0,0 STARLINK-5990,1 56448U 23064A   24215.60228098 -.00004523  00000-0 -37125-3 0  9998,2 56448  70.0006 177.2188 0002914 276.0555  84.0272 14.98354481 67757,6950.117,96.105,574.007,569.957,0.0
56448.0,STARLINK-5990,PAYLOAD,2024-08-02 22:27:58,14.98323338,0.0002558,70.0011,176.3781,266.0213,94.0654,9.9963e-05,1.1e-05,0.0,0 STARLINK-5990,1 56448U 23064A   24215.93609109  .00001100  00000-0  99963-4 0  9995,2 56448  70.0011 176.3781 0002558 266.0213  94.0654 14.98323338 67804,6950.213,96.107,573.856,570.301,0.0
56448.0,STARLINK-5990,PAYLOAD,2024-08-03 04:52:30,14.98325291,0.0002634,70.0009,175.7052,262.9316,97.1543,-6.4873e-07,-1.01e-06,0.0,0 STARLINK-5990,1 56448U 23064A   24216.20313237 -.00000101  00000-0 -64873-6 0  9996,2 56448  70.0009 175.7052 0002634 262.9316  97.1543 14.98325291 68205,6950.207,96.107,573.903,570.242,0.0
56448.0,STARLINK-5990,PAYLOAD,2024-08-03 14:29:18,14.98328807,0.0002704,70.0007,174.696,266.7523,93.3326,-4.746e-05,-6.59e-06,0.0,0 STARLINK-5990,1 56448U 23064A   24216.60369159 -.00000659  00000-0 -47460-4 0  9993,2 56448  70.0007 174.6960 0002704 266.7523  93.3326 14.98328807 67908,6950.197,96.107,573.941,570.182,0.0
56448.0,STARLINK-5990,PAYLOAD,2024-08-03 22:29:59,14.98331016,0.0002783,70.0004,173.8539,265.9455,94.1386,-5.0271e-05,-6.93e-06,0.0,0 STARLINK-5990,1 56448U 23064A   24216.93749012 -.00000693  00000-0 -50271-4 0  9991,2 56448  70.0004 173.8539 0002783 265.9455  94.1386 14.98331016 67956,6950.19,96.107,573.989,570.121,0.0
56448.0,STARLINK-5990,PAYLOAD,2024-08-04 04:54:31,14.9833247,0.0002762,70.0006,173.181,265.8909,94.1934,-1.5648e-05,-2.8e-06,0.0,0 STARLINK-5990,1 56448U 23064A   24217.20452822 -.00000280  00000-0 -15648-4 0  9993,2 56448  70.0006 173.1810 0002762 265.8909  94.1934 14.98332470 68352,6950.185,96.107,573.97,570.131,0.0
56448.0,STARLINK-5990,PAYLOAD,2024-08-04 14:31:19,14.98335195,0.0002943,70.0001,172.1713,268.4119,91.6703,-1.0109e-05,-2.14e-06,0.0,0 STARLINK-5990,1 56448U 23064A   24217.60508555 -.00000214  00000-0 -10109-4 0  9996,2 56448  70.0001 172.1713 0002943 268.4119  91.6703 14.98335195 68051,6950.177,96.107,574.087,569.996,0.0
56448.0,STARLINK-5990,PAYLOAD,2024-08-04 22:31:59,14.98326675,0.0003009,69.9999,171.3289,268.903,91.1784,9.7001e-05,1.064e-05,0.0,0 STARLINK-5990,1 56448U 23064A   24217.93888806  .00001064  00000-0  97001-4 0  9990,2 56448  69.9999 171.3289 0003009 268.9030  91.1784 14.98326675 68107,6950.203,96.107,574.159,569.977,0.0
56448.0,STARLINK-5990,PAYLOAD,2024-08-05 04:56:31,14.98335595,0.0002816,70.0,170.6547,265.8945,94.1892,0.0001364,1.535e-05,0.0,0 STARLINK-5990,1 56448U 23064A   24218.20592140  .00001535  00000-0  13640-3 0  9993,2 56448  70.0000 170.6547 0002816 265.8945  94.1892 14.98335595 68506,6950.176,96.107,573.998,570.083,0.0
56448.0,STARLINK-5990,PAYLOAD,2024-08-05 14:33:20,14.98326005,0.0002476,70.0005,169.6449,276.2539,83.8338,8.0294e-06,3e-08,0.0,0 STARLINK-5990,1 56448U 23064A   24218.60649195  .00000003  00000-0  80294-5 0  9990,2 56448  70.0005 169.6449 0002476 276.2539  83.8338 14.98326005 68569,6950.205,96.107,573.791,570.349,0.0
56448.0,STARLINK-5990,PAYLOAD,2024-08-05 22:34:01,14.98320373,0.0002319,70.0005,168.805,278.733,81.3566,-4.1425e-05,-5.87e-06,0.0,0 STARLINK-5990,1 56448U 23064A   24218.94029895 -.00000587  00000-0 -41425-4 0  9997,2 56448  70.0005 168.8050 0002319 278.7330  81.3566 14.98320373 68254,6950.223,96.108,573.699,570.476,0.0
56448.0,STARLINK-5990,PAYLOAD,2024-08-06 04:58:34,14.98316778,0.0002991,70.0001,168.1316,273.2781,86.8036,-0.00014054,-1.769e-05,0.0,0 STARLINK-5990,1 56448U 23064A   24219.20734463 -.00001769  00000-0 -14054-3 0  9991,2 56448  70.0001 168.1316 0002991 273.2781  86.8036 14.98316778 68654,6950.234,96.108,574.178,570.02,0.0
56448.0,STARLINK-5990,PAYLOAD,2024-08-06 14:35:22,14.98324332,0.0003068,69.9999,167.1221,276.8937,83.1873,-8.0035e-05,-1.048e-05,0.0,0 STARLINK-5990,1 56448U 23064A   24219.60790078 -.00001048  00000-0 -80035-4 0  9992,2 56448  69.9999 167.1221 0003068 276.8937  83.1873 14.98324332 68350,6950.21,96.107,574.208,569.943,0.0
56448.0,STARLINK-5990,PAYLOAD,2024-08-06 20:59:54,14.98328025,0.0003073,70.0,166.4478,274.2324,85.8484,2.224e-05,1.72e-06,0.0,0 STARLINK-5990,1 56448U 23064A   24219.87493602  .00000172  00000-0  22240-4 0  9993,2 56448  70.0000 166.4478 0003073 274.2324  85.8484 14.98328025 68754,6950.199,96.107,574.2,569.928,0.0
56448.0,STARLINK-5990,PAYLOAD,2024-08-07 03:24:26,14.98337346,0.0003003,70.0,165.7745,273.7572,86.3244,7.6668e-05,8.22e-06,0.0,0 STARLINK-5990,1 56448U 23064A   24220.14196910  .00000822  00000-0  76668-4 0  9992,2 56448  70.0000 165.7745 0003003 273.7572  86.3244 14.98337346 68795,6950.17,96.107,574.122,569.948,0.0
56448.0,STARLINK-5990,PAYLOAD,2024-08-07 21:01:54,14.98325842,0.0002885,70.0005,163.9229,276.249,83.834,0.0002586,2.994e-05,0.0,0 STARLINK-5990,1 56448U 23064A   24220.87633032  .00002994  00000-0  25860-3 0  9992,2 56448  70.0005 163.9229 0002885 276.2490  83.8340 14.98325842 68901,6950.206,96.107,574.076,570.066,0.0
56448.0,STARLINK-5990,PAYLOAD,2024-08-08 06:38:42,14.98338327,0.0002465,70.0016,162.9123,278.1816,81.9063,0.00030162,3.508e-05,0.0,0 STARLINK-5990,1 56448U 23064A   24221.27688286  .00003508  00000-0  30162-3 0  9991,2 56448  70.0016 162.9123 0002465 278.1816  81.9063 14.98338327 68602,6950.167,96.106,573.745,570.319,0.0
56448.0,STARLINK-5990,PAYLOAD,2024-08-08 21:03:55,14.98336355,0.0002145,70.0035,161.4012,262.987,97.1045,6.556e-05,6.9e-06,0.0,0 STARLINK-5990,1 56448U 23064A   24221.87772798  .00000690  00000-0  65560-4 0  9999,2 56448  70.0035 161.4012 0002145 262.9870  97.1045 14.98336355 69058,6950.173,96.107,573.529,570.547,0.0
56448.0,STARLINK-5990,PAYLOAD,2024-08-08 22:40:03,14.98333927,0.0002296,70.0034,161.2335,264.9046,95.1851,5.4395e-05,5.56e-06,0.0,0 STARLINK-5990,1 56448U 23064A   24221.94448968  .00000556  00000-0  54395-4 0  9991,2 56448  70.0034 161.2335 0002296 264.9046  95.1851 14.98333927 68703,6950.181,96.107,573.642,570.45,0.0
56448.0,STARLINK-5990,PAYLOAD,2024-08-09 13:05:16,14.98336263,0.0002385,70.0015,159.7163,264.8085,95.2801,-2.4821e-05,-3.89e-06,0.0,0 STARLINK-5990,1 56448U 23064A   24222.54532786 -.00000389  00000-0 -24821-4 0  9997,2 56448  70.0015 159.7163 0002385 264.8085  95.2801 14.98336263 68795,6950.174,96.107,573.696,570.381,0.0
56448.0,STARLINK-5990,PAYLOAD,2024-08-09 21:05:56,14.98334035,0.0002377,70.0026,158.8774,258.2575,101.8317,-4.9034e-05,-6.78e-06,0.0,0 STARLINK-5990,1 56448U 23064A   24222.87912828 -.00000678  00000-0 -49034-4 0  9996,2 56448  70.0026 158.8774 0002377 258.2575 101.8317 14.98334035 69205,6950.18,96.107,573.697,570.393,0.0
56448.0,STARLINK-5990,PAYLOAD,2024-08-10 05:06:36,14.98337072,0.0002481,70.0016,158.0354,258.2673,101.8207,-4.2156e-05,-5.96e-06,0.0,0 STARLINK-5990,1 56448U 23064A   24223.21292588 -.00000596  00000-0 -42156-4 0  9996,2 56448  70.0016 158.0354 0002481 258.2673 101.8207 14.98337072 68891,6950.171,96.107,573.76,570.312,0.0
56448.0,STARLINK-5990,PAYLOAD,2024-08-10 21:07:57,14.98330984,0.000258,70.0013,156.3499,262.8809,97.2056,6.5077e-05,6.84e-06,0.0,0 STARLINK-5990,1 56448U 23064A   24223.88052461  .00000684  00000-0  65077-4 0  9996,2 56448  70.0013 156.3499 0002580 262.8809  97.2056 14.98330984 69358,6950.19,96.107,573.848,570.262,0.0
56448.0,STARLINK-5990,PAYLOAD,2024-08-10 22:44:05,14.98331122,0.0002589,70.0012,156.1815,263.3462,96.7403,5.5692e-05,5.72e-06,0.0,0 STARLINK-5990,1 56448U 23064A   24223.94728469  .00000572  00000-0  55692-4 0  9999,2 56448  70.0012 156.1815 0002589 263.3462  96.7403 14.98331122 69004,6950.189,96.107,573.854,570.255,0.0
56448.0,STARLINK-5990,PAYLOAD,2024-08-11 22:46:06,14.98330134,0.000258,70.0012,153.6551,276.2014,83.8851,0.00010127,1.116e-05,0.0,0 STARLINK-5990,1 56448U 23064A   24224.94868391  .00001116  00000-0  10127-3 0  9997,2 56448  70.0012 153.6551 0002580 276.2014  83.8851 14.98330134 69152,6950.192,96.107,573.851,570.264,0.0
56448.0,STARLINK-5990,PAYLOAD,2024-08-12 05:10:37,14.98338835,0.0002663,70.0018,152.9862,268.5733,91.5121,0.00016148,1.835e-05,0.0,0 STARLINK-5990,1 56448U 23064A   24225.21571487  .00001835  00000-0  16148-3 0  9992,2 56448  70.0018 152.9862 0002663 268.5733  91.5121 14.98338835 69555,6950.166,96.106,573.881,570.18,0.0
56448.0,STARLINK-5990,PAYLOAD,2024-08-12 13:11:17,14.98341651,0.0002674,70.0014,152.1419,275.8595,84.2259,6.2391e-05,6.52e-06,0.0,0 STARLINK-5990,1 56448U 23064A   24225.54951358  .00000652  00000-0  62391-4 0  9995,2 56448  70.0014 152.1419 0002674 275.8595  84.2259 14.98341651 69247,6950.157,96.106,573.88,570.163,0.0
56448.0,STARLINK-5990,PAYLOAD,2024-08-12 22:48:06,14.98342468,0.0002689,70.0019,151.134,275.4265,84.6588,0.00013361,1.502e-05,0.0,0 STARLINK-5990,1 56448U 23064A   24225.95007013  .00001502  00000-0  13361-3 0  9997,2 56448  70.0019 151.1340 0002689 275.4265  84.6588 14.98342468 69303,6950.154,96.106,573.888,570.15,0.0
56448.0,STARLINK-5990,PAYLOAD,2024-08-13 05:12:37,14.98353197,0.0002977,70.0,150.4582,270.3184,89.7634,0.00020002,2.296e-05,0.0,0 STARLINK-5990,1 56448U 23064A   24226.21709682  .00002296  00000-0  20002-3 0  9999,2 56448  70.0000 150.4582 0002977 270.3184  89.7634 14.98353197 69700,6950.121,96.106,574.055,569.917,0.0
